CTC1_L_00134001-01
1 75132U 22842TX  26070.40832176  .00000000  00000+0  00000-0 0  9991
2 75132  50.0000   0.0000 0000000   0.0000   0.0000 14.15679949    11
CTC1_L_00134001-02
1 75133U 24872IT  26070.40832176  .00000000  00000+0  00000-0 0  9997
2 75133  50.0000   0.0000 0000000   0.0000  90.0000 14.15679949    11
CTC1_L_00134001-03
1 75134U 26795US  26070.40832176  .00000000  00000+0  00000-0 0  9994
2 75134  50.0000   0.0000 0000000   0.0000 180.0000 14.15679949    12
CTC1_L_00134001-04
1 75135U 24044OI  26070.40832176  .00000000  00000+0  00000-0 0  9990
2 75135  50.0000   0.0000 0000000   0.0000 270.0000 14.15679949    13
CTC1_L_00134002-01
1 75136U 22776N   26070.40832176  .00000000  00000+0  00000-0 0  9991
2 75136  50.0000  12.0000 0000000   0.0000  12.0000 14.15679949    11
CTC1_L_00134002-02
1 75137U 26535UO  26070.40832176  .00000000  00000+0  00000-0 0  9999
2 75137  50.0000  12.0000 0000000   0.0000 102.0000 14.15679949    12
CTC1_L_00134002-03
1 75138U 25964WL  26070.40832176  .00000000  00000+0  00000-0 0  9995
2 75138  50.0000  12.0000 0000000   0.0000 192.0000 14.15679949    12
CTC1_L_00134002-04
1 75139U 23302BM  26070.40832176  .00000000  00000+0  00000-0 0  9990
2 75139  50.0000  12.0000 0000000   0.0000 282.0000 14.15679949    13
CTC1_L_00134003-01
1 75140U 23684RR  26070.40832176  .00000000  00000+0  00000-0 0  9995
2 75140  50.0000  24.0000 0000000   0.0000  24.0000 14.15679949    12
CTC1_L_00134003-02
1 75141U 26578SR  26070.40832176  .00000000  00000+0  00000-0 0  9991
2 75141  50.0000  24.0000 0000000   0.0000 114.0000 14.15679949    13
CTC1_L_00134003-03
1 75142U 23023FG  26070.40832176  .00000000  00000+0  00000-0 0  9994
2 75142  50.0000  24.0000 0000000   0.0000 204.0000 14.15679949    14
CTC1_L_00134003-04
1 75143U 23096IY  26070.40832176  .00000000  00000+0  00000-0 0  9995
2 75143  50.0000  24.0000 0000000   0.0000 294.0000 14.15679949    14
CTC1_L_00134004-01
1 75144U 24855AS  26070.40832176  .00000000  00000+0  00000-0 0  9990
2 75144  50.0000  36.0000 0000000   0.0000  36.0000 14.15679949    12
CTC1_L_00134004-02
1 75145U 24832RP  26070.40832176  .00000000  00000+0  00000-0 0  9996
2 75145  50.0000  36.0000 0000000   0.0000 126.0000 14.15679949    13
CTC1_L_00134004-03
1 75146U 25329HF  26070.40832176  .00000000  00000+0  00000-0 0  9999
2 75146  50.0000  36.0000 0000000   0.0000 216.0000 14.15679949    14
CTC1_L_00134004-04
1 75147U 26326YF  26070.40832176  .00000000  00000+0  00000-0 0  9998
2 75147  50.0000  36.0000 0000000   0.0000 306.0000 14.15679949    15
CTC1_L_00134005-01
1 75148U 22110IB  26070.40832176  .00000000  00000+0  00000-0 0  9996
2 75148  50.0000  48.0000 0000000   0.0000  48.0000 14.15679949    12
CTC1_L_00134005-02
1 75149U 23092VG  26070.40832176  .00000000  00000+0  00000-0 0  9997
2 75149  50.0000  48.0000 0000000   0.0000 138.0000 14.15679949    13
CTC1_L_00134005-03
1 75150U 23798LR  26070.40832176  .00000000  00000+0  00000-0 0  9992
2 75150  50.0000  48.0000 0000000   0.0000 228.0000 14.15679949    15
CTC1_L_00134005-04
1 75151U 25877FR  26070.40832176  .00000000  00000+0  00000-0 0  9993
2 75151  50.0000  48.0000 0000000   0.0000 318.0000 14.15679949    16
CTC1_L_00134006-01
1 75152U 26280GP  26070.40832176  .00000000  00000+0  00000-0 0  9993
2 75152  50.0000  60.0000 0000000   0.0000  60.0000 14.15679949    15
CTC1_L_00134006-02
1 75153U 25511HT  26070.40832176  .00000000  00000+0  00000-0 0  9990
2 75153  50.0000  60.0000 0000000   0.0000 150.0000 14.15679949    16
CTC1_L_00134006-03
1 75154U 24915RU  26070.40832176  .00000000  00000+0  00000-0 0  9998
2 75154  50.0000  60.0000 0000000   0.0000 240.0000 14.15679949    17
CTC1_L_00134006-04
1 75155U 26238KC  26070.40832176  .00000000  00000+0  00000-0 0  9999
2 75155  50.0000  60.0000 0000000   0.0000 330.0000 14.15679949    18
CTC1_L_00134007-01
1 75156U 26720SR  26070.40832176  .00000000  00000+0  00000-0 0  9996
2 75156  50.0000  72.0000 0000000   0.0000  72.0000 14.15679949    15
CTC1_L_00134007-02
1 75157U 23775OO  26070.40832176  .00000000  00000+0  00000-0 0  9994
2 75157  50.0000  72.0000 0000000   0.0000 162.0000 14.15679949    16
CTC1_L_00134007-03
1 75158U 23726FG  26070.40832176  .00000000  00000+0  00000-0 0  9991
2 75158  50.0000  72.0000 0000000   0.0000 252.0000 14.15679949    17
CTC1_L_00134007-04
1 75159U 26087DX  26070.40832176  .00000000  00000+0  00000-0 0  9995
2 75159  50.0000  72.0000 0000000   0.0000 342.0000 14.15679949    18
CTC1_L_00134008-01
1 75160U 24136SE  26070.40832176  .00000000  00000+0  00000-0 0  9990
2 75160  50.0000  84.0000 0000000   0.0000  84.0000 14.15679949    16
CTC1_L_00134008-02
1 75161U 22276KN  26070.40832176  .00000000  00000+0  00000-0 0  9994
2 75161  50.0000  84.0000 0000000   0.0000 174.0000 14.15679949    17
CTC1_L_00134008-03
1 75162U 25452ZS  26070.40832176  .00000000  00000+0  00000-0 0  9994
2 75162  50.0000  84.0000 0000000   0.0000 264.0000 14.15679949    18
CTC1_L_00134008-04
1 75163U 26560G   26070.40832176  .00000000  00000+0  00000-0 0  9996
2 75163  50.0000  84.0000 0000000   0.0000 354.0000 14.15679949    19
CTC1_L_00134009-01
1 75164U 24719MW  26070.40832176  .00000000  00000+0  00000-0 0  9991
2 75164  50.0000  96.0000 0000000   0.0000  96.0000 14.15679949    16
CTC1_L_00134009-02
1 75165U 24156QN  26070.40832176  .00000000  00000+0  00000-0 0  9997
2 75165  50.0000  96.0000 0000000   0.0000 186.0000 14.15679949    17
CTC1_L_00134009-03
1 75166U 23570PC  26070.40832176  .00000000  00000+0  00000-0 0  9997
2 75166  50.0000  96.0000 0000000   0.0000 276.0000 14.15679949    18
CTC1_L_00134009-04
1 75167U 25356XR  26070.40832176  .00000000  00000+0  00000-0 0  9992
2 75167  50.0000  96.0000 0000000   0.0000   6.0000 14.15679949    10
CTC1_L_00134010-01
1 75168U 22580PQ  26070.40832176  .00000000  00000+0  00000-0 0  9999
2 75168  50.0000 108.0000 0000000   0.0000 108.0000 14.15679949    18
CTC1_L_00134010-02
1 75169U 22783IS  26070.40832176  .00000000  00000+0  00000-0 0  9995
2 75169  50.0000 108.0000 0000000   0.0000 198.0000 14.15679949    18
CTC1_L_00134010-03
1 75170U 23021SM  26070.40832176  .00000000  00000+0  00000-0 0  9993
2 75170  50.0000 108.0000 0000000   0.0000 288.0000 14.15679949    10
CTC1_L_00134010-04
1 75171U 25914FG  26070.40832176  .00000000  00000+0  00000-0 0  9997
2 75171  50.0000 108.0000 0000000   0.0000  18.0000 14.15679949    12
CTC1_L_00134011-01
1 75172U 26811AZ  26070.40832176  .00000000  00000+0  00000-0 0  9995
2 75172  50.0000 120.0000 0000000   0.0000 120.0000 14.15679949    11
CTC1_L_00134011-02
1 75173U 24273WF  26070.40832176  .00000000  00000+0  00000-0 0  9996
2 75173  50.0000 120.0000 0000000   0.0000 210.0000 14.15679949    12
CTC1_L_00134011-03
1 75174U 25301QJ  26070.40832176  .00000000  00000+0  00000-0 0  9990
2 75174  50.0000 120.0000 0000000   0.0000 300.0000 14.15679949    13
CTC1_L_00134011-04
1 75175U 26417EU  26070.40832176  .00000000  00000+0  00000-0 0  9990
2 75175  50.0000 120.0000 0000000   0.0000  30.0000 14.15679949    14
CTC1_L_00134012-01
1 75176U 24892GY  26070.40832176  .00000000  00000+0  00000-0 0  9996
2 75176  50.0000 132.0000 0000000   0.0000 132.0000 14.15679949    11
CTC1_L_00134012-02
1 75177U 24004MO  26070.40832176  .00000000  00000+0  00000-0 0  9992
2 75177  50.0000 132.0000 0000000   0.0000 222.0000 14.15679949    12
CTC1_L_00134012-03
1 75178U 26009S   26070.40832176  .00000000  00000+0  00000-0 0  9990
2 75178  50.0000 132.0000 0000000   0.0000 312.0000 14.15679949    13
CTC1_L_00134012-04
1 75179U 23415FB  26070.40832176  .00000000  00000+0  00000-0 0  9999
2 75179  50.0000 132.0000 0000000   0.0000  42.0000 14.15679949    14
CTC1_L_00134013-01
1 75180U 25550AP  26070.40832176  .00000000  00000+0  00000-0 0  9993
2 75180  50.0000 144.0000 0000000   0.0000 144.0000 14.15679949    12
CTC1_L_00134013-02
1 75181U 23204KD  26070.40832176  .00000000  00000+0  00000-0 0  9998
2 75181  50.0000 144.0000 0000000   0.0000 234.0000 14.15679949    13
CTC1_L_00134013-03
1 75182U 24446JL  26070.40832176  .00000000  00000+0  00000-0 0  9998
2 75182  50.0000 144.0000 0000000   0.0000 324.0000 14.15679949    14
CTC1_L_00134013-04
1 75183U 25459OY  26070.40832176  .00000000  00000+0  00000-0 0  9994
2 75183  50.0000 144.0000 0000000   0.0000  54.0000 14.15679949    15
CTC1_L_00134014-01
1 75184U 23316IF  26070.40832176  .00000000  00000+0  00000-0 0  9995
2 75184  50.0000 156.0000 0000000   0.0000 156.0000 14.15679949    12
CTC1_L_00134014-02
1 75185U 24533GZ  26070.40832176  .00000000  00000+0  00000-0 0  9998
2 75185  50.0000 156.0000 0000000   0.0000 246.0000 14.15679949    13
CTC1_L_00134014-03
1 75186U 26457HE  26070.40832176  .00000000  00000+0  00000-0 0  9996
2 75186  50.0000 156.0000 0000000   0.0000 336.0000 14.15679949    14
CTC1_L_00134014-04
1 75187U 24363EU  26070.40832176  .00000000  00000+0  00000-0 0  9991
2 75187  50.0000 156.0000 0000000   0.0000  66.0000 14.15679949    15
CTC1_L_00134015-01
1 75188U 25281KT  26070.40832176  .00000000  00000+0  00000-0 0  9992
2 75188  50.0000 168.0000 0000000   0.0000 168.0000 14.15679949    12
CTC1_L_00134015-02
1 75189U 24388XH  26070.40832176  .00000000  00000+0  00000-0 0  9990
2 75189  50.0000 168.0000 0000000   0.0000 258.0000 14.15679949    13
CTC1_L_00134015-03
1 75190U 23023FD  26070.40832176  .00000000  00000+0  00000-0 0  9997
2 75190  50.0000 168.0000 0000000   0.0000 348.0000 14.15679949    15
CTC1_L_00134015-04
1 75191U 22883PF  26070.40832176  .00000000  00000+0  00000-0 0  9991
2 75191  50.0000 168.0000 0000000   0.0000  78.0000 14.15679949    16
CTC1_L_00134016-01
1 75192U 22194SE  26070.40832176  .00000000  00000+0  00000-0 0  9997
2 75192  50.0000 180.0000 0000000   0.0000 180.0000 14.15679949    15
CTC1_L_00134016-02
1 75193U 24206UH  26070.40832176  .00000000  00000+0  00000-0 0  9994
2 75193  50.0000 180.0000 0000000   0.0000 270.0000 14.15679949    16
